OBJECT B                
1 51825U 22019B   25249.96912731  .00038242  00000+0  83205-3 0  9994
2 51825  97.3797 327.6842 0010364  90.2463 269.9973 15.44155998195679
